{
  "type": "FeatureCollection",
  "features": [
    {
      "type": "Feature",
      "properties": {
        "norad_id": 29904,
        "name": "FENGYUN 1C DEB",
        "group": "fengyun-1c-debris",
        "lat": -67.22145586550891,
        "lon": -162.401647650734,
        "alt_km": 618.4215000168278,
        "timestamp": "2025-12-27T02:10:16.461596+00:00",
        "meta_object_name": "FENGYUN 1C DEB",
        "meta_object_id": "1999-025HA",
        "meta_epoch": "2025-12-26T20:01:09.183648",
        "meta_mean_motion": 14.44531283,
        "meta_eccentricity": 0.0207381,
        "meta_inclination": 99.0401,
        "meta_ra_of_asc_node": 39.6057,
        "meta_arg_of_pericenter": 276.6141,
        "meta_mean_anomaly": 81.1482,
        "meta_ephemeris_type": 0,
        "meta_classification_type": "U",
        "meta_norad_cat_id": 29904,
        "meta_element_set_no": 999,
        "meta_rev_at_epoch": 99267,
        "meta_bstar": 0.00041741,
        "meta_mean_motion_dot": 1.814e-05,
        "meta_mean_motion_ddot": 0,
        "tle_line1": "1 29904U 99025HA  25360.83413407  .00001814  00000+0  41741-3 0  9998",
        "tle_line2": "2 29904  99.0401  39.6057 0207381 276.6141  81.1482 14.44531283992679"
      },
      "geometry": {
        "type": "Point",
        "coordinates": [
          -162.401647650734,
          -67.22145586550891
        ]
      }
    },
    {
      "type": "Feature",
      "properties": {
        "norad_id": 29906,
        "name": "FENGYUN 1C DEB",
        "group": "fengyun-1c-debris",
        "lat": 72.46353345795995,
        "lon": 75.90287029563677,
        "alt_km": 697.306894460743,
        "timestamp": "2025-12-27T02:10:16.461606+00:00",
        "meta_object_name": "FENGYUN 1C DEB",
        "meta_object_id": "1999-025HC",
        "meta_epoch": "2025-12-26T19:12:12.921984",
        "meta_mean_motion": 14.49871799,
        "meta_eccentricity": 0.0036116,
        "meta_inclination": 98.7047,
        "meta_ra_of_asc_node": 104.6045,
        "meta_arg_of_pericenter": 107.7804,
        "meta_mean_anomaly": 252.7335,
        "meta_ephemeris_type": 0,
        "meta_classification_type": "U",
        "meta_norad_cat_id": 29906,
        "meta_element_set_no": 999,
        "meta_rev_at_epoch": 98361,
        "meta_bstar": 0.0022835,
        "meta_mean_motion_dot": 8.855e-05,
        "meta_mean_motion_ddot": 0,
        "tle_line1": "1 29906U 99025HC  25360.80014956  .00008855  00000+0  22835-2 0  9997",
        "tle_line2": "2 29906  98.7047 104.6045 0036116 107.7804 252.7335 14.49871799983610"
      },
      "geometry": {
        "type": "Point",
        "coordinates": [
          75.90287029563677,
          72.46353345795995
        ]
      }
    },
    {
      "type": "Feature",
      "properties": {
        "norad_id": 29907,
        "name": "FENGYUN 1C DEB",
        "group": "fengyun-1c-debris",
        "lat": 54.84431804256796,
        "lon": 54.815931253780505,
        "alt_km": 903.2043877655469,
        "timestamp": "2025-12-27T02:10:16.461616+00:00",
        "meta_object_name": "FENGYUN 1C DEB",
        "meta_object_id": "1999-025HD",
        "meta_epoch": "2025-12-26T16:25:06.431808",
        "meta_mean_motion": 14.11713036,
        "meta_eccentricity": 0.0084922,
        "meta_inclination": 99.1106,
        "meta_ra_of_asc_node": 67.5738,
        "meta_arg_of_pericenter": 210.7841,
        "meta_mean_anomaly": 301.5275,
        "meta_ephemeris_type": 0,
        "meta_classification_type": "U",
        "meta_norad_cat_id": 29907,
        "meta_element_set_no": 999,
        "meta_rev_at_epoch": 96795,
        "meta_bstar": 0.0014134,
        "meta_mean_motion_dot": 2.617e-05,
        "meta_mean_motion_ddot": 0,
        "tle_line1": "1 29907U 99025HD  25360.68410222  .00002617  00000+0  14134-2 0  9993",
        "tle_line2": "2 29907  99.1106  67.5738 0084922 210.7841 301.5275 14.11713036967955"
      },
      "geometry": {
        "type": "Point",
        "coordinates": [
          54.815931253780505,
          54.84431804256796
        ]
      }
    },
    {
      "type": "Feature",
      "properties": {
        "norad_id": 29909,
        "name": "FENGYUN 1C DEB",
        "group": "fengyun-1c-debris",
        "lat": 71.83201518816844,
        "lon": 77.78846450774314,
        "alt_km": 707.7814075415836,
        "timestamp": "2025-12-27T02:10:16.461626+00:00",
        "meta_object_name": "FENGYUN 1C DEB",
        "meta_object_id": "1999-025HF",
        "meta_epoch": "2025-12-26T06:10:44.226048",
        "meta_mean_motion": 14.55342823,
        "meta_eccentricity": 0.0038203,
        "meta_inclination": 98.6341,
        "meta_ra_of_asc_node": 104.5096,
        "meta_arg_of_pericenter": 332.3824,
        "meta_mean_anomaly": 59.3588,
        "meta_ephemeris_type": 0,
        "meta_classification_type": "U",
        "meta_norad_cat_id": 29909,
        "meta_element_set_no": 999,
        "meta_rev_at_epoch": 98602,
        "meta_bstar": 0.0020345,
        "meta_mean_motion_dot": 8.872e-05,
        "meta_mean_motion_ddot": 0,
        "tle_line1": "1 29909U 99025HF  25360.25745632  .00008872  00000+0  20345-2 0  9994",
        "tle_line2": "2 29909  98.6341 104.5096 0038203 332.3824  59.3588 14.55342823986028"
      },
      "geometry": {
        "type": "Point",
        "coordinates": [
          77.78846450774314,
          71.83201518816844
        ]
      }
    },
    {
      "type": "Feature",
      "properties": {
        "norad_id": 29911,
        "name": "FENGYUN 1C DEB",
        "group": "fengyun-1c-debris",
        "lat": 36.13697411591809,
        "lon": -129.61229806145533,
        "alt_km": 809.7541027246398,
        "timestamp": "2025-12-27T02:10:16.461636+00:00",
        "meta_object_name": "FENGYUN 1C DEB",
        "meta_object_id": "1999-025HH",
        "meta_epoch": "2025-12-26T14:22:08.192352",
        "meta_mean_motion": 14.18895032,
        "meta_eccentricity": 0.002744,
        "meta_inclination": 98.7142,
        "meta_ra_of_asc_node": 43.4742,
        "meta_arg_of_pericenter": 112.6058,
        "meta_mean_anomaly": 39.9903,
        "meta_ephemeris_type": 0,
        "meta_classification_type": "U",
        "meta_norad_cat_id": 29911,
        "meta_element_set_no": 999,
        "meta_rev_at_epoch": 97627,
        "meta_bstar": 0.0007256,
        "meta_mean_motion_dot": 1.474e-05,
        "meta_mean_motion_ddot": 0,
        "tle_line1": "1 29911U 99025HH  25360.59870593  .00001474  00000+0  72560-3 0  9997",
        "tle_line2": "2 29911  98.7142  43.4742 0027440 112.6058  39.9903 14.18895032976274"
      },
      "geometry": {
        "type": "Point",
        "coordinates": [
          -129.61229806145533,
          36.13697411591809
        ]
      }
    },
    {
      "type": "Feature",
      "properties": {
        "norad_id": 29912,
        "name": "FENGYUN 1C DEB",
        "group": "fengyun-1c-debris",
        "lat": -81.25748242165547,
        "lon": -170.98276433181894,
        "alt_km": 756.4951852732265,
        "timestamp": "2025-12-27T02:10:16.461646+00:00",
        "meta_object_name": "FENGYUN 1C DEB",
        "meta_object_id": "1999-025HJ",
        "meta_epoch": "2025-12-26T18:52:44.089824",
        "meta_mean_motion": 14.43172072,
        "meta_eccentricity": 0.0043335,
        "meta_inclination": 98.7369,
        "meta_ra_of_asc_node": 98.5898,
        "meta_arg_of_pericenter": 178.5203,
        "meta_mean_anomaly": 313.2595,
        "meta_ephemeris_type": 0,
        "meta_classification_type": "U",
        "meta_norad_cat_id": 29912,
        "meta_element_set_no": 999,
        "meta_rev_at_epoch": 98241,
        "meta_bstar": 0.0021463,
        "meta_mean_motion_dot": 7.255e-05,
        "meta_mean_motion_ddot": 0,
        "tle_line1": "1 29912U 99025HJ  25360.78662141  .00007255  00000+0  21463-2 0  9995",
        "tle_line2": "2 29912  98.7369  98.5898 0043335 178.5203 313.2595 14.43172072982411"
      },
      "geometry": {
        "type": "Point",
        "coordinates": [
          -170.98276433181894,
          -81.25748242165547
        ]
      }
    },
    {
      "type": "Feature",
      "properties": {
        "norad_id": 29913,
        "name": "FENGYUN 1C DEB",
        "group": "fengyun-1c-debris",
        "lat": -21.079157613263785,
        "lon": 2.9659124022373775,
        "alt_km": 887.3762042663375,
        "timestamp": "2025-12-27T02:10:16.461656+00:00",
        "meta_object_name": "FENGYUN 1C DEB",
        "meta_object_id": "1999-025HK",
        "meta_epoch": "2025-12-26T11:41:53.387808",
        "meta_mean_motion": 14.07396718,
        "meta_eccentricity": 0.0062017,
        "meta_inclination": 98.7881,
        "meta_ra_of_asc_node": 358.9611,
        "meta_arg_of_pericenter": 232.1286,
        "meta_mean_anomaly": 292.2595,
        "meta_ephemeris_type": 0,
        "meta_classification_type": "U",
        "meta_norad_cat_id": 29913,
        "meta_element_set_no": 999,
        "meta_rev_at_epoch": 97158,
        "meta_bstar": 0.00024966,
        "meta_mean_motion_dot": 3.84e-06,
        "meta_mean_motion_ddot": 0,
        "tle_line1": "1 29913U 99025HK  25360.48742347  .00000384  00000+0  24966-3 0  9998",
        "tle_line2": "2 29913  98.7881 358.9611 0062017 232.1286 292.2595 14.07396718971580"
      },
      "geometry": {
        "type": "Point",
        "coordinates": [
          2.9659124022373775,
          -21.079157613263785
        ]
      }
    }
  ]
}